start=new Date('2022-02-02T00:00:00.000Z').valueOf();
sats=[{"SEMIMAJOR_AXIS":"6760.015","MEAN_ANOMALY":"211.8016","OBJECT_NAME":"STARLINK-3105","REF_FRAME":"TEME","SITE":"AFETR","PERIAPSIS":"380.951","EPHEMERIS_TYPE":"0","CLASSIFICATION_TYPE":"U","ECCENTRICITY":"0.00013730","OBJECT_TYPE":"PAYLOAD","MEAN_ELEMENT_THEORY":"SGP4","PERIOD":"92.189","MEAN_MOTION_DDOT":"0.0000000000000","MEAN_MOTION_DOT":"-0.00661448","ARG_OF_PERICENTER":"51.7446","FILE":"3289675","COUNTRY_CODE":"US","DECAY_DATE":null,"TLE_LINE2":"2 49440  53.2175  95.5261 0001373  51.7446 211.8016 15.62001001  3698","OBJECT_ID":"2021-104AJ","GP_ID":"195125903","CENTER_NAME":"EARTH","RA_OF_ASC_NODE":"95.5261","ELEMENT_SET_NO":"999","APOAPSIS":"382.808","TIME_SYSTEM":"UTC","MEAN_MOTION":"15.62001001","RCS_SIZE":"LARGE","REV_AT_EPOCH":"369","BSTAR":"-0.00806030000000","TLE_LINE1":"1 49440U 21104AJ  22032.91667824 -.00661448  00000-0 -80603-2 0  9991","LAUNCH_DATE":"2021-11-13","INCLINATION":"53.2175","EPOCH":"2022-02-01T22:00:00.999936","NORAD_CAT_ID":"49440"},{"NORAD_CAT_ID":"49441","EPOCH":"2022-02-01T22:00:00.999936","INCLINATION":"53.2175","LAUNCH_DATE":"2021-11-13","TLE_LINE1":"1 49441U 21104AK  22032.91667824 -.00661674  00000-0 -78835-2 0  9997","BSTAR":"-0.00788350000000","REV_AT_EPOCH":"369","RCS_SIZE":"LARGE","MEAN_MOTION":"15.62576761","APOAPSIS":"381.100","TIME_SYSTEM":"UTC","ELEMENT_SET_NO":"999","RA_OF_ASC_NODE":"95.5188","GP_ID":"195124160","CENTER_NAME":"EARTH","OBJECT_ID":"2021-104AK","TLE_LINE2":"2 49441  53.2175  95.5188 0001303  54.4332 229.9694 15.62576761  3696","DECAY_DATE":null,"COUNTRY_CODE":"US","FILE":"3289675","MEAN_MOTION_DDOT":"0.0000000000000","PERIOD":"92.155","MEAN_MOTION_DOT":"-0.00661674","ARG_OF_PERICENTER":"54.4332","MEAN_ELEMENT_THEORY":"SGP4","ECCENTRICITY":"0.00013030","OBJECT_TYPE":"PAYLOAD","CLASSIFICATION_TYPE":"U","EPHEMERIS_TYPE":"0","PERIAPSIS":"379.338","SITE":"AFETR","REF_FRAME":"TEME","OBJECT_NAME":"STARLINK-3128","MEAN_ANOMALY":"229.9694","SEMIMAJOR_AXIS":"6758.354"},{"DECAY_DATE":null,"TLE_LINE2":"2 49442  53.2175  95.5248 0001253  62.6018 205.1839 15.62116125  3691","OBJECT_ID":"2021-104AL","MEAN_MOTION_DDOT":"0.0000000000000","PERIOD":"92.183","ARG_OF_PERICENTER":"62.6018","MEAN_MOTION_DOT":"-0.00661452","FILE":"3289675","COUNTRY_CODE":"US","MEAN_ELEMENT_THEORY":"SGP4","CLASSIFICATION_TYPE":"U","EPHEMERIS_TYPE":"0","OBJECT_TYPE":"PAYLOAD","ECCENTRICITY":"0.00012530","SITE":"AFETR","PERIAPSIS":"380.701","OBJECT_NAME":"STARLINK-3098","REF_FRAME":"TEME","SEMIMAJOR_AXIS":"6759.682","MEAN_ANOMALY":"205.1839","EPOCH":"2022-02-01T22:00:00.999936","NORAD_CAT_ID":"49442","INCLINATION":"53.2175","TLE_LINE1":"1 49442U 21104AL  22032.91667824 -.00661452  00000-0 -80244-2 0  9999","LAUNCH_DATE":"2021-11-13","REV_AT_EPOCH":"369","BSTAR":"-0.00802440000000","TIME_SYSTEM":"UTC","APOAPSIS":"382.394","RCS_SIZE":"LARGE","MEAN_MOTION":"15.62116125","GP_ID":"195124410","CENTER_NAME":"EARTH","RA_OF_ASC_NODE":"95.5248","ELEMENT_SET_NO":"999"},{"LAUNCH_DATE":"2021-11-13","TLE_LINE1":"1 49443U 21104AM  22032.91667824 -.00661782  00000-0 -78491-2 0  9997","INCLINATION":"53.2175","NORAD_CAT_ID":"49443","EPOCH":"2022-02-01T22:00:00.999936","ELEMENT_SET_NO":"999","GP_ID":"195125661","RA_OF_ASC_NODE":"95.5171","CENTER_NAME":"EARTH","MEAN_MOTION":"15.62691926","RCS_SIZE":"LARGE","TIME_SYSTEM":"UTC","APOAPSIS":"380.820","BSTAR":"-0.00784910000000","REV_AT_EPOCH":"369","OBJECT_TYPE":"PAYLOAD","ECCENTRICITY":"0.00013810","EPHEMERIS_TYPE":"0","CLASSIFICATION_TYPE":"U","MEAN_ELEMENT_THEORY":"SGP4","FILE":"3289675","COUNTRY_CODE":"US","MEAN_MOTION_DOT":"-0.00661782","PERIOD":"92.149","MEAN_MOTION_DDOT":"0.0000000000000","ARG_OF_PERICENTER":"47.9373","OBJECT_ID":"2021-104AM","DECAY_DATE":null,"TLE_LINE2":"2 49443  53.2175  95.5171 0001381  47.9373 240.5343 15.62691926  3699","MEAN_ANOMALY":"240.5343","SEMIMAJOR_AXIS":"6758.022","REF_FRAME":"TEME","OBJECT_NAME":"STARLINK-3136","PERIAPSIS":"378.954","SITE":"AFETR"},{"SITE":"AFETR","PERIAPSIS":"380.322","OBJECT_NAME":"STARLINK-3126","REF_FRAME":"TEME","SEMIMAJOR_AXIS":"6759.350","MEAN_ANOMALY":"217.4454","TLE_LINE2":"2 49444  53.2175  95.5233 0001321  54.5455 217.4454 15.62231318  3699","DECAY_DATE":null,"OBJECT_ID":"2021-104AN","PERIOD":"92.176","ARG_OF_PERICENTER":"54.5455","MEAN_MOTION_DDOT":"0.0000000000000","MEAN_MOTION_DOT":"-0.00661541","COUNTRY_CODE":"US","FILE":"3289675","MEAN_ELEMENT_THEORY":"SGP4","CLASSIFICATION_TYPE":"U","EPHEMERIS_TYPE":"0","OBJECT_TYPE":"PAYLOAD","ECCENTRICITY":"0.00013210","REV_AT_EPOCH":"369","BSTAR":"-0.00798930000000","TIME_SYSTEM":"UTC","APOAPSIS":"382.108","MEAN_MOTION":"15.62231318","RCS_SIZE":"LARGE","GP_ID":"195125404","RA_OF_ASC_NODE":"95.5233","CENTER_NAME":"EARTH","ELEMENT_SET_NO":"999","EPOCH":"2022-02-01T22:00:00.999936","NORAD_CAT_ID":"49444","INCLINATION":"53.2175","TLE_LINE1":"1 49444U 21104AN  22032.91667824 -.00661541  00000-0 -79893-2 0  9998","LAUNCH_DATE":"2021-11-13"},{"GP_ID":"195124660","RA_OF_ASC_NODE":"99.7502","CENTER_NAME":"EARTH","ELEMENT_SET_NO":"999","TIME_SYSTEM":"UTC","APOAPSIS":"471.101","RCS_SIZE":"LARGE","MEAN_MOTION":"15.31949323","REV_AT_EPOCH":"366","BSTAR":"-0.02283400000000","TLE_LINE1":"1 49445U 21104AP  22032.91667824 -.00663219  00000-0 -22834-1 0  9995","LAUNCH_DATE":"2021-11-13","INCLINATION":"53.2175","EPOCH":"2022-02-01T22:00:00.999936","NORAD_CAT_ID":"49445","SEMIMAJOR_AXIS":"6848.134","MEAN_ANOMALY":"255.9001","OBJECT_NAME":"STARLINK-3122","REF_FRAME":"TEME","SITE":"AFETR","PERIAPSIS":"468.896","EPHEMERIS_TYPE":"0","CLASSIFICATION_TYPE":"U","OBJECT_TYPE":"PAYLOAD","ECCENTRICITY":"0.00016100","MEAN_ELEMENT_THEORY":"SGP4","PERIOD":"93.998","ARG_OF_PERICENTER":"43.6494","MEAN_MOTION_DDOT":"0.0000000000000","MEAN_MOTION_DOT":"-0.00663219","COUNTRY_CODE":"US","FILE":"3289675","TLE_LINE2":"2 49445  53.2175  99.7502 0001610  43.6494 255.9001 15.31949323  3668","DECAY_DATE":null,"OBJECT_ID":"2021-104AP"},{"SITE":"AFETR","PERIAPSIS":"380.053","SEMIMAJOR_AXIS":"6759.018","MEAN_ANOMALY":"211.3248","OBJECT_NAME":"STARLINK-3099","REF_FRAME":"TEME","PERIOD":"92.169","ARG_OF_PERICENTER":"64.8375","MEAN_MOTION_DDOT":"0.0000000000000","MEAN_MOTION_DOT":"-0.00661461","COUNTRY_CODE":"US","FILE":"3289675","TLE_LINE2":"2 49446  53.2175  95.5218 0001229  64.8375 211.3248 15.62346384  3690","DECAY_DATE":null,"OBJECT_ID":"2021-104AQ","EPHEMERIS_TYPE":"0","CLASSIFICATION_TYPE":"U","ECCENTRICITY":"0.00012290","OBJECT_TYPE":"PAYLOAD","MEAN_ELEMENT_THEORY":"SGP4","REV_AT_EPOCH":"369","BSTAR":"-0.00795250000000","CENTER_NAME":"EARTH","GP_ID":"195124910","RA_OF_ASC_NODE":"95.5218","ELEMENT_SET_NO":"999","TIME_SYSTEM":"UTC","APOAPSIS":"381.714","RCS_SIZE":"LARGE","MEAN_MOTION":"15.62346384","INCLINATION":"53.2175","EPOCH":"2022-02-01T22:00:00.999936","NORAD_CAT_ID":"49446","TLE_LINE1":"1 49446U 21104AQ  22032.91667824 -.00661461  00000-0 -79525-2 0  9993","LAUNCH_DATE":"2021-11-13"},{"ELEMENT_SET_NO":"999","GP_ID":"195125162","CENTER_NAME":"EARTH","RA_OF_ASC_NODE":"99.7485","RCS_SIZE":"LARGE","MEAN_MOTION":"15.32173760","TIME_SYSTEM":"UTC","APOAPSIS":"470.384","BSTAR":"-0.02266500000000","REV_AT_EPOCH":"366","LAUNCH_DATE":"2021-11-13","TLE_LINE1":"1 49447U 21104AR  22032.91667824 -.00662989  00000-0 -22665-1 0  9992","INCLINATION":"53.2175","NORAD_CAT_ID":"49447","EPOCH":"2022-02-01T22:00:00.999936","MEAN_ANOMALY":"282.2171","SEMIMAJOR_AXIS":"6847.465","REF_FRAME":"TEME","OBJECT_NAME":"STARLINK-3115","PERIAPSIS":"468.276","SITE":"AFETR","ECCENTRICITY":"0.00015390","OBJECT_TYPE":"PAYLOAD","CLASSIFICATION_TYPE":"U","EPHEMERIS_TYPE":"0","MEAN_ELEMENT_THEORY":"SGP4","FILE":"3289675","COUNTRY_CODE":"US","MEAN_MOTION_DOT":"-0.00662989","PERIOD":"93.984","MEAN_MOTION_DDOT":"0.0000000000000","ARG_OF_PERICENTER":"43.9167","OBJECT_ID":"2021-104AR","DECAY_DATE":null,"TLE_LINE2":"2 49447  53.2175  99.7485 0001539  43.9167 282.2171 15.32173760  3666"},{"OBJECT_NAME":"STARLINK-3097","REF_FRAME":"TEME","SEMIMAJOR_AXIS":"6848.477","MEAN_ANOMALY":"238.6978","SITE":"AFETR","PERIAPSIS":"469.272","MEAN_ELEMENT_THEORY":"SGP4","EPHEMERIS_TYPE":"0","CLASSIFICATION_TYPE":"U","OBJECT_TYPE":"PAYLOAD","ECCENTRICITY":"0.00015630","TLE_LINE2":"2 49448  53.2175  99.7505 0001563  47.6783 238.6978 15.31834101  3664","DECAY_DATE":null,"OBJECT_ID":"2021-104AS","PERIOD":"94.005","MEAN_MOTION_DDOT":"0.0000000000000","MEAN_MOTION_DOT":"-0.00662974","ARG_OF_PERICENTER":"47.6783","COUNTRY_CODE":"US","FILE":"3289675","APOAPSIS":"471.413","TIME_SYSTEM":"UTC","MEAN_MOTION":"15.31834101","RCS_SIZE":"LARGE","GP_ID":"195125904","CENTER_NAME":"EARTH","RA_OF_ASC_NODE":"99.7505","ELEMENT_SET_NO":"999","REV_AT_EPOCH":"366","BSTAR":"-0.02290800000000","TLE_LINE1":"1 49448U 21104AS  22032.91667824 -.00662974  00000-0 -22908-1 0  9997","LAUNCH_DATE":"2021-11-13","EPOCH":"2022-02-01T22:00:00.999936","NORAD_CAT_ID":"49448","INCLINATION":"53.2175"},{"PERIAPSIS":"467.866","SITE":"AFETR","REF_FRAME":"TEME","OBJECT_NAME":"STARLINK-3137","MEAN_ANOMALY":"300.4453","SEMIMAJOR_AXIS":"6847.122","OBJECT_ID":"2021-104AT","DECAY_DATE":null,"TLE_LINE2":"2 49449  53.2175  99.7478 0001638  38.7615 300.4453 15.32288785  3660","FILE":"3289675","COUNTRY_CODE":"US","PERIOD":"93.977","ARG_OF_PERICENTER":"38.7615","MEAN_MOTION_DDOT":"0.0000000000000","MEAN_MOTION_DOT":"-0.00662893","MEAN_ELEMENT_THEORY":"SGP4","ECCENTRICITY":"0.00016380","OBJECT_TYPE":"PAYLOAD","EPHEMERIS_TYPE":"0","CLASSIFICATION_TYPE":"U","BSTAR":"-0.02257900000000","REV_AT_EPOCH":"366","RCS_SIZE":"LARGE","MEAN_MOTION":"15.32288785","TIME_SYSTEM":"UTC","APOAPSIS":"470.109","ELEMENT_SET_NO":"999","RA_OF_ASC_NODE":"99.7478","GP_ID":"195124161","CENTER_NAME":"EARTH","NORAD_CAT_ID":"49449","EPOCH":"2022-02-01T22:00:00.999936","INCLINATION":"53.2175","LAUNCH_DATE":"2021-11-13","TLE_LINE1":"1 49449U 21104AT  22032.91667824 -.00662893  00000-0 -22579-1 0  9992"}];
